SL-8 R/B                
1 19257U 88053B   26091.69064996  .00000322  00000+0  11267-3 0  9991
2 19257  74.0464  70.0644 0021421 246.2865 286.4698 14.38931850979904
COSMOS 1975             
1 19573U 88093A   26091.44553527  .00006706  00000+0  24087-3 0  9998
2 19573  82.5154  94.8303 0013408  91.5017 268.7758 15.28388149 22880
SL-14 R/B               
1 19574U 88093B   26091.58272039  .00000651  00000+0  72051-4 0  9998
2 19574  82.5343  20.5574 0019789 326.2877 207.1143 14.85684080  4416
SL-16 R/B               
1 19650U 88102B   26091.71996737  .00000118  00000+0  83734-4 0  9995
2 19650  70.9969 103.0379 0015285 327.7197  32.2989 14.16153877930157
INTERCOSMOS 24          
1 20261U 89080A   26091.67910546  .00000503  00000+0  14820-3 0  9997
2 20261  82.6014  89.4288 1186940 239.4130 108.4677 12.59586556669695
SL-14 R/B               
1 20262U 89080C   26091.28092624  .00000420  00000+0  11743-3 0  9992
2 20262  82.5950 158.6900 1230905 133.1373 237.9537 12.50515118662978
DELTA 1 R/B             
1 20323U 89089B   26091.79651925  .00000414  00000+0  11066-3 0  9991
2 20323  97.0687 295.5566 0070301  50.3855 310.3520 14.50682375899083
ARIANE 40 R/B           
1 20443U 90005H   26091.18955671  .00000297  00000+0  10780-3 0  9993
2 20443  98.3037 151.1754 0011135 133.2837 226.9282 14.39885236896044
DELTA 2 R/B(1)          
1 20453U 90008B   26091.83550884  .00073519  00000+0  78201-3 0  9995
2 20453  35.6044  22.6054 0076793 116.2428 244.6226 15.59135232929746
COSMOS 2058             
1 20465U 90010A   26091.88593357  .00005678  00000+0  33316-3 0  9997
2 20465  82.4716  24.5717 0007744 249.2864 110.7536 15.11545123945740
SL-14 R/B               
1 20466U 90010B   26091.68605118  .00000632  00000+0  73671-4 0  9999
2 20466  82.5002 245.7817 0018832 220.9079 139.0724 14.83591305931897
SL-14 R/B               
1 20511U 90018B   26091.59090774  .00000547  00000+0  65658-4 0  9995
2 20511  82.5240 201.6892 0016654  21.5813 338.6099 14.82167929925971
HST                     
1 20580U 90037B   26091.51659578  .00009290  00000+0  30432-3 0  9992
2 20580  28.4720 244.2399 0001988  30.6605 329.4107 15.29849412776819
SL-16 R/B               
1 20625U 90046B   26091.74271411  .00000106  00000+0  79521-4 0  9993
2 20625  70.9984 249.4936 0016474 269.6120  90.3115 14.15018387851651
COSMOS 2084             
1 20663U 90055A   26091.43476126  .00003073  00000+0  22448-3 0  9992
2 20663  62.7892 257.9924 0013423 197.5570 162.5069 15.05783047939749
SL-6 R/B(2)             
1 20666U 90055D   26091.51512032  .00002266  00000+0  17774-3 0  9990
2 20666  62.7834 176.2229 0028549 352.1504   7.9144 15.03705924941622
SL-8 R/B                
1 20775U 90078B   26091.41691792  .00011197  00000+0  33166-3 0  9992
2 20775  82.9033 230.8570 0357927 297.3117  59.2079 14.89731470812687
